NORAD_CAT_ID,OBJECT_NAME,OBJECT_TYPE,EPOCH,MEAN_MOTION,ECCENTRICITY,INCLINATION,RA_OF_ASC_NODE,ARG_OF_PERICENTER,MEAN_ANOMALY,BSTAR,MEAN_MOTION_DOT,MEAN_MOTION_DDOT,TLE_LINE0,TLE_LINE1,TLE_LINE2,SEMIMAJOR_AXIS,PERIOD,APOGEE,PERIGEE,DECAYED
52662.0,STARLINK-4044,PAYLOAD,2024-06-22 04:06:58,15.08838006,0.0001346,53.2173,82.178,95.6962,264.4183,7.3874e-06,-1.7e-06,0.0,0 STARLINK-4044,1 52662U 22053G   24174.17151354 -.00000170  00000-0  73874-5 0  9991,2 52662  53.2173  82.1780 0001346  95.6962 264.4183 15.08838006116613,6917.886,95.438,540.683,538.82,0.0
52662.0,STARLINK-4044,PAYLOAD,2024-06-22 16:50:03,15.08834505,0.000131,53.2174,79.7991,89.5638,270.5504,7.4369e-05,8.96e-06,0.0,0 STARLINK-4044,1 52662U 22053G   24174.70143502  .00000896  00000-0  74369-4 0  9999,2 52662  53.2174  79.7991 0001310  89.5638 270.5504 15.08834505116696,6917.897,95.438,540.668,538.856,0.0
52662.0,STARLINK-4044,PAYLOAD,2024-06-22 21:36:13,15.08834229,0.0001294,53.2173,78.9067,94.0615,266.0525,6.7394e-05,7.85e-06,0.0,0 STARLINK-4044,1 52662U 22053G   24174.90015588  .00000785  00000-0  67394-4 0  9990,2 52662  53.2173  78.9067 0001294  94.0615 266.0525 15.08834229116727,6917.898,95.438,540.658,538.868,0.0
52662.0,STARLINK-4044,PAYLOAD,2024-06-23 03:57:46,15.08834173,0.0001289,53.2174,77.7174,93.41,266.704,6.1549e-05,6.92e-06,0.0,0 STARLINK-4044,1 52662U 22053G   24175.16511718  .00000692  00000-0  61549-4 0  9998,2 52662  53.2174  77.7174 0001289  93.4100 266.7040 15.08834173116761,6917.898,95.438,540.655,538.871,0.0
52662.0,STARLINK-4044,PAYLOAD,2024-06-23 21:27:00,15.0883762,0.000123,53.2173,74.4466,92.5048,267.6085,5.8664e-05,6.46e-06,0.0,0 STARLINK-4044,1 52662U 22053G   24175.89375687  .00000646  00000-0  58664-4 0  9994,2 52662  53.2173  74.4466 0001230  92.5048 267.6085 15.08837620116876,6917.888,95.438,540.604,538.902,0.0
52662.0,STARLINK-4044,PAYLOAD,2024-06-24 02:13:09,15.08840528,0.0001259,53.2172,73.5544,94.7811,265.3325,8.439e-05,1.055e-05,0.0,0 STARLINK-4044,1 52662U 22053G   24176.09247450  .00001055  00000-0  84390-4 0  9993,2 52662  53.2172  73.5544 0001259  94.7811 265.3325 15.08840528116902,6917.879,95.438,540.615,538.873,0.0
52662.0,STARLINK-4044,PAYLOAD,2024-06-24 21:17:48,15.08832,0.0001283,53.2169,69.9859,103.5046,256.6089,2.2752e-05,7.4e-07,0.0,0 STARLINK-4044,1 52662U 22053G   24176.88736350  .00000074  00000-0  22752-4 0  9996,2 52662  53.2169  69.9859 0001283 103.5046 256.6089 15.08832000117022,6917.905,95.438,540.657,538.882,0.0
52662.0,STARLINK-4044,PAYLOAD,2024-06-25 00:28:34,15.08829889,0.0001248,53.2172,69.3913,103.2345,256.8786,-3.5178e-06,-3.44e-06,0.0,0 STARLINK-4044,1 52662U 22053G   24177.01984613 -.00000344  00000-0 -35178-5 0  9998,2 52662  53.2172  69.3913 0001248 103.2345 256.8786 15.08829889117040,6917.911,95.438,540.64,538.913,0.0
52662.0,STARLINK-4044,PAYLOAD,2024-06-25 21:08:34,15.08846021,0.000123,53.2178,65.5239,110.5607,249.5518,7.9533e-05,9.78e-06,0.0,0 STARLINK-4044,1 52662U 22053G   24177.88095375  .00000978  00000-0  79533-4 0  9994,2 52662  53.2178  65.5239 0001230 110.5607 249.5518 15.08846021117171,6917.862,95.437,540.578,538.876,0.0
52662.0,STARLINK-4044,PAYLOAD,2024-06-25 22:43:57,15.08846972,0.0001424,53.2168,65.2287,76.3586,283.7564,8.6073e-05,1.082e-05,0.0,0 STARLINK-4044,1 52662U 22053G   24177.94719474  .00001082  00000-0  86073-4 0  9998,2 52662  53.2168  65.2287 0001424  76.3586 283.7564 15.08846972117187,6917.859,95.437,540.709,538.739,0.0
52662.0,STARLINK-4044,PAYLOAD,2024-06-26 00:19:20,15.08850866,0.0001611,53.218,64.929,70.6089,289.5078,0.00011634,1.565e-05,0.0,0 STARLINK-4044,1 52662U 22053G   24178.01343154  .00001565  00000-0  11634-3 0  9991,2 52662  53.2180  64.9290 0001611  70.6089 289.5078 15.08850866117196,6917.847,95.437,540.827,538.598,0.0
52662.0,STARLINK-4044,PAYLOAD,2024-06-26 22:34:44,15.08840413,0.000138,53.2153,60.7732,155.1566,204.9493,7.5442e-05,9.13e-06,0.0,0 STARLINK-4044,1 52662U 22053G   24178.94079361  .00000913  00000-0  75442-4 0  9993,2 52662  53.2153  60.7732 0001380 155.1566 204.9493 15.08840413117338,6917.879,95.438,540.699,538.789,0.0
52662.0,STARLINK-4044,PAYLOAD,2024-06-27 20:50:09,15.08847081,0.0001268,53.2171,56.6071,103.6956,256.4177,-0.00013224,-2.392e-05,0.0,0 STARLINK-4044,1 52662U 22053G   24179.86816025 -.00002392  00000-0 -13224-3 0  9995,2 52662  53.2171  56.6071 0001268 103.6956 256.4177 15.08847081117478,6917.859,95.437,540.601,538.847,0.0
52662.0,STARLINK-4044,PAYLOAD,2024-06-28 20:40:55,15.08847355,0.0001182,53.2179,52.1454,107.5904,252.5218,1.6434e-05,-2.6e-07,0.0,0 STARLINK-4044,1 52662U 22053G   24180.86175469 -.00000026  00000-0  16434-4 0  9995,2 52662  53.2179  52.1454 0001182 107.5904 252.5218 15.08847355117627,6917.858,95.437,540.541,538.905,0.0
52662.0,STARLINK-4044,PAYLOAD,2024-06-29 18:56:20,15.08833259,0.0002557,53.2159,47.9776,142.6666,217.4505,3.5937e-05,2.83e-06,0.0,0 STARLINK-4044,1 52662U 22053G   24181.78912234  .00000283  00000-0  35937-4 0  9999,2 52662  53.2159  47.9776 0002557 142.6666 217.4505 15.08833259117768,6917.901,95.438,541.535,537.997,0.0
52662.0,STARLINK-4044,PAYLOAD,2024-06-29 22:07:06,15.08830466,0.0001018,53.2168,47.3864,96.3092,263.8016,-2.9165e-05,-7.52e-06,0.0,0 STARLINK-4044,1 52662U 22053G   24181.92160849 -.00000752  00000-0 -29165-4 0  9991,2 52662  53.2168  47.3864 0001018  96.3092 263.8016 15.08830466117780,6917.91,95.438,540.479,539.07,0.0
52662.0,STARLINK-4044,PAYLOAD,2024-06-30 07:39:24,15.08842828,0.0001102,53.2184,45.6025,99.8493,260.2623,7.4921e-05,9.05e-06,0.0,0 STARLINK-4044,1 52662U 22053G   24182.31903763  .00000905  00000-0  74921-4 0  9993,2 52662  53.2184  45.6025 0001102  99.8493 260.2623 15.08842828117842,6917.872,95.437,540.499,538.974,0.0
52662.0,STARLINK-4044,PAYLOAD,2024-06-30 20:22:30,15.088331,0.0001474,53.2188,43.2314,117.3217,242.7925,8.9348e-06,-1.46e-06,0.0,0 STARLINK-4044,1 52662U 22053G   24182.84896882 -.00000146  00000-0  89348-5 0  9992,2 52662  53.2188  43.2314 0001474 117.3217 242.7925 15.08833100117925,6917.901,95.438,540.786,538.747,0.0
52662.0,STARLINK-4044,PAYLOAD,2024-06-30 21:57:54,15.08832923,0.0001213,53.2176,42.9305,106.6613,253.4512,7.7281e-06,-1.65e-06,0.0,0 STARLINK-4044,1 52662U 22053G   24182.91520905 -.00000165  00000-0  77281-5 0  9994,2 52662  53.2176  42.9305 0001213 106.6613 253.4512 15.08832923117934,6917.902,95.438,540.606,538.928,0.0
52662.0,STARLINK-4044,PAYLOAD,2024-07-01 01:08:39,15.08840637,0.000103,53.2169,42.3311,84.1495,275.9614,7.4238e-05,8.94e-06,0.0,0 STARLINK-4044,1 52662U 22053G   24183.04768271  .00000894  00000-0  74238-4 0  9995,2 52662  53.2169  42.3311 0001030  84.1495 275.9614 15.08840637117957,6917.878,95.438,540.456,539.031,0.0
52662.0,STARLINK-4044,PAYLOAD,2024-07-01 07:30:11,15.08848682,0.0001178,53.2189,41.1431,90.3777,269.735,0.00014449,2.013e-05,0.0,0 STARLINK-4044,1 52662U 22053G   24183.31263526  .00002013  00000-0  14449-3 0  9990,2 52662  53.2189  41.1431 0001178  90.3777 269.7350 15.08848682117994,6917.854,95.437,540.534,538.904,0.0
52662.0,STARLINK-4044,PAYLOAD,2024-07-01 13:51:44,15.08837656,0.000168,53.2178,39.9569,92.8752,267.2432,0.00020471,2.971e-05,0.0,0 STARLINK-4044,1 52662U 22053G   24183.57760086  .00002971  00000-0  20471-3 0  9996,2 52662  53.2178  39.9569 0001680  92.8752 267.2432 15.08837656118036,6917.888,95.438,540.915,538.59,0.0
52662.0,STARLINK-4044,PAYLOAD,2024-07-01 18:37:55,15.08826862,0.0001138,53.2191,39.0635,97.4355,262.6767,0.00010214,1.338e-05,0.0,0 STARLINK-4044,1 52662U 22053G   24183.77633105  .00001338  00000-0  10214-3 0  9999,2 52662  53.2191  39.0635 0001138  97.4355 262.6767 15.08826862118064,6917.921,95.438,540.573,538.998,0.0
52662.0,STARLINK-4044,PAYLOAD,2024-07-01 21:48:41,15.08830326,0.0001188,53.2165,38.4675,96.1395,263.9733,0.00013926,1.929e-05,0.0,0 STARLINK-4044,1 52662U 22053G   24183.90880932  .00001929  00000-0  13926-3 0  9995,2 52662  53.2165  38.4675 0001188  96.1395 263.9733 15.08830326118086,6917.91,95.438,540.597,538.953,0.0
52662.0,STARLINK-4044,PAYLOAD,2024-07-02 07:20:59,15.0884164,0.0001159,53.2177,36.6836,92.232,267.8805,0.00018131,2.599e-05,0.0,0 STARLINK-4044,1 52662U 22053G   24184.30624255  .00002599  00000-0  18131-3 0  9991,2 52662  53.2177  36.6836 0001159  92.2320 267.8805 15.08841640118142,6917.875,95.437,540.542,538.939,0.0
52662.0,STARLINK-4044,PAYLOAD,2024-07-02 13:42:32,15.08839873,0.0001535,53.2157,35.4956,91.7078,268.4089,0.00017005,2.419e-05,0.0,0 STARLINK-4044,1 52662U 22053G   24184.57120443  .00002419  00000-0  17005-3 0  9990,2 52662  53.2157  35.4956 0001535  91.7078 268.4089 15.08839873118182,6917.881,95.438,540.808,538.684,0.0
52662.0,STARLINK-4044,PAYLOAD,2024-07-02 20:04:05,15.08838231,0.0001142,53.2172,34.3036,93.2563,266.856,2.8729e-05,1.69e-06,0.0,0 STARLINK-4044,1 52662U 22053G   24184.83617043  .00000169  00000-0  28729-4 0  9992,2 52662  53.2172  34.3036 0001142  93.2563 266.8560 15.08838231118224,6917.886,95.438,540.541,538.961,0.0
52662.0,STARLINK-4044,PAYLOAD,2024-07-02 21:39:28,15.08837439,0.0001003,53.2164,34.0065,91.9274,268.1833,6.0696e-05,6.78e-06,0.0,0 STARLINK-4044,1 52662U 22053G   24184.90240982  .00000678  00000-0  60696-4 0  9998,2 52662  53.2164  34.0065 0001003  91.9274 268.1833 15.08837439118232,6917.888,95.438,540.447,539.059,0.0
52662.0,STARLINK-4044,PAYLOAD,2024-07-03 13:33:19,15.08847838,0.000194,53.2143,31.0342,82.6951,277.4261,2.3927e-05,9.3e-07,0.0,0 STARLINK-4044,1 52662U 22053G   24185.56480395  .00000093  00000-0  23927-4 0  9992,2 52662  53.2143  31.0342 0001940  82.6951 277.4261 15.08847838118336,6917.856,95.437,541.063,538.379,0.0
52662.0,STARLINK-4044,PAYLOAD,2024-07-03 19:54:52,15.08834822,0.0001086,53.2163,29.8437,90.4571,269.6546,9.8177e-05,1.275e-05,0.0,0 STARLINK-4044,1 52662U 22053G   24185.82976890  .00001275  00000-0  98177-4 0  9993,2 52662  53.2163  29.8437 0001086  90.4571 269.6546 15.08834822118376,6917.896,95.438,540.512,539.01,0.0
